{
  "type": "FeatureCollection",
  "features": [
    {
      "type": "Feature",
      "properties": {
        "norad_id": 30701,
        "name": "FENGYUN 1C DEB",
        "group": "fengyun-1c-debris",
        "lat": 78.52681761654976,
        "lon": -27.51354974847341,
        "alt_km": 818.4149417946765,
        "timestamp": "2025-12-06T03:35:02.149377+00:00",
        "meta_object_name": "FENGYUN 1C DEB",
        "meta_object_id": "1999-025ARK",
        "meta_epoch": "2025-12-05T01:58:37.506720",
        "meta_mean_motion": 14.1393376,
        "meta_eccentricity": 0.00355746,
        "meta_inclination": 98.7195,
        "meta_ra_of_asc_node": 20.5696,
        "meta_arg_of_pericenter": 123.9823,
        "meta_mean_anomaly": 290.8889,
        "meta_ephemeris_type": 0,
        "meta_classification_type": "U",
        "meta_norad_cat_id": 30701,
        "meta_element_set_no": 999,
        "meta_rev_at_epoch": 97011,
        "meta_bstar": 3.5641884e-05,
        "meta_mean_motion_dot": 2.5e-07,
        "meta_mean_motion_ddot": 0,
        "tle_line1": "1 30701U 99025ARK 25339.08237855  .00000025  00000+0  35642-4 0  9996",
        "tle_line2": "2 30701  98.7195  20.5696 0035574 123.9823 290.8889 14.13933760970111"
      },
      "geometry": {
        "type": "Point",
        "coordinates": [
          -27.51354974847341,
          78.52681761654976
        ]
      }
    },
    {
      "type": "Feature",
      "properties": {
        "norad_id": 30702,
        "name": "FENGYUN 1C DEB",
        "group": "fengyun-1c-debris",
        "lat": -81.17533828587396,
        "lon": 84.15732615996508,
        "alt_km": 856.4357414121814,
        "timestamp": "2025-12-06T03:35:02.149387+00:00",
        "meta_object_name": "FENGYUN 1C DEB",
        "meta_object_id": "1999-025ARL",
        "meta_epoch": "2025-12-05T07:34:42.796704",
        "meta_mean_motion": 14.03566146,
        "meta_eccentricity": 0.00684667,
        "meta_inclination": 98.7706,
        "meta_ra_of_asc_node": 359.4198,
        "meta_arg_of_pericenter": 322.9554,
        "meta_mean_anomaly": 59.07,
        "meta_ephemeris_type": 0,
        "meta_classification_type": "U",
        "meta_norad_cat_id": 30702,
        "meta_element_set_no": 999,
        "meta_rev_at_epoch": 96058,
        "meta_bstar": 0.0011191176,
        "meta_mean_motion_dot": 1.75e-05,
        "meta_mean_motion_ddot": 0,
        "tle_line1": "1 30702U 99025ARL 25339.31577311  .00001750  00000+0  11191-2 0  9994",
        "tle_line2": "2 30702  98.7706 359.4198 0068466 322.9554  59.0700 14.03566146960585"
      },
      "geometry": {
        "type": "Point",
        "coordinates": [
          84.15732615996508,
          -81.17533828587396
        ]
      }
    },
    {
      "type": "Feature",
      "properties": {
        "norad_id": 30703,
        "name": "FENGYUN 1C DEB",
        "group": "fengyun-1c-debris",
        "lat": 1.4165040958425699,
        "lon": -35.25924870013808,
        "alt_km": 776.0325939638842,
        "timestamp": "2025-12-06T03:35:02.149398+00:00",
        "meta_object_name": "FENGYUN 1C DEB",
        "meta_object_id": "1999-025ARM",
        "meta_epoch": "2025-12-03T21:43:46.657632",
        "meta_mean_motion": 14.19246261,
        "meta_eccentricity": 0.01182671,
        "meta_inclination": 99.1409,
        "meta_ra_of_asc_node": 322.6545,
        "meta_arg_of_pericenter": 317.152,
        "meta_mean_anomaly": 104.7477,
        "meta_ephemeris_type": 0,
        "meta_classification_type": "U",
        "meta_norad_cat_id": 30703,
        "meta_element_set_no": 999,
        "meta_rev_at_epoch": 96415,
        "meta_bstar": 0.002570031,
        "meta_mean_motion_dot": 5.734e-05,
        "meta_mean_motion_ddot": 0,
        "tle_line1": "1 30703U 99025ARM 25337.90540113  .00005734  00000+0  25700-2 0  9995",
        "tle_line2": "2 30703  99.1409 322.6545 0118267 317.1520 104.7477 14.19246261964159"
      },
      "geometry": {
        "type": "Point",
        "coordinates": [
          -35.25924870013808,
          1.4165040958425699
        ]
      }
    },
    {
      "type": "Feature",
      "properties": {
        "norad_id": 30704,
        "name": "FENGYUN 1C DEB",
        "group": "fengyun-1c-debris",
        "lat": -8.527811208142868,
        "lon": -19.59067485882805,
        "alt_km": 925.6736007979998,
        "timestamp": "2025-12-06T03:35:02.149408+00:00",
        "meta_object_name": "FENGYUN 1C DEB",
        "meta_object_id": "1999-025ARN",
        "meta_epoch": "2025-12-04T12:49:38.938080",
        "meta_mean_motion": 14.02032589,
        "meta_eccentricity": 0.0081656,
        "meta_inclination": 98.8707,
        "meta_ra_of_asc_node": 337.4964,
        "meta_arg_of_pericenter": 122.4922,
        "meta_mean_anomaly": 3.5624,
        "meta_ephemeris_type": 0,
        "meta_classification_type": "U",
        "meta_norad_cat_id": 30704,
        "meta_element_set_no": 999,
        "meta_rev_at_epoch": 95996,
        "meta_bstar": 0.00060217,
        "meta_mean_motion_dot": 9.04e-06,
        "meta_mean_motion_ddot": 0,
        "tle_line1": "1 30704U 99025ARN 25338.53447845  .00000904  00000+0  60217-3 0  9991",
        "tle_line2": "2 30704  98.8707 337.4964 0081656 122.4922   3.5624 14.02032589959961"
      },
      "geometry": {
        "type": "Point",
        "coordinates": [
          -19.59067485882805,
          -8.527811208142868
        ]
      }
    },
    {
      "type": "Feature",
      "properties": {
        "norad_id": 30705,
        "name": "FENGYUN 1C DEB",
        "group": "fengyun-1c-debris",
        "lat": 4.524573557091257,
        "lon": -96.59054085035473,
        "alt_km": 1037.880422788482,
        "timestamp": "2025-12-06T03:35:02.149419+00:00",
        "meta_object_name": "FENGYUN 1C DEB",
        "meta_object_id": "1999-025ARP",
        "meta_epoch": "2025-12-04T12:33:04.793760",
        "meta_mean_motion": 13.81255549,
        "meta_eccentricity": 0.0198736,
        "meta_inclination": 102.181,
        "meta_ra_of_asc_node": 80.3375,
        "meta_arg_of_pericenter": 301.6661,
        "meta_mean_anomaly": 72.242,
        "meta_ephemeris_type": 0,
        "meta_classification_type": "U",
        "meta_norad_cat_id": 30705,
        "meta_element_set_no": 999,
        "meta_rev_at_epoch": 93896,
        "meta_bstar": 0.0040212,
        "meta_mean_motion_dot": 4.891e-05,
        "meta_mean_motion_ddot": 0,
        "tle_line1": "1 30705U 99025ARP 25338.52297215  .00004891  00000+0  40212-2 0  9996",
        "tle_line2": "2 30705 102.1810  80.3375 0198736 301.6661  72.2420 13.81255549938968"
      },
      "geometry": {
        "type": "Point",
        "coordinates": [
          -96.59054085035473,
          4.524573557091257
        ]
      }
    },
    {
      "type": "Feature",
      "properties": {
        "norad_id": 30706,
        "name": "FENGYUN 1C DEB",
        "group": "fengyun-1c-debris",
        "lat": 50.640739292389235,
        "lon": 65.75072756365238,
        "alt_km": 781.4347644231821,
        "timestamp": "2025-12-06T03:35:02.149430+00:00",
        "meta_object_name": "FENGYUN 1C DEB",
        "meta_object_id": "1999-025ARQ",
        "meta_epoch": "2025-12-05T03:24:53.843904",
        "meta_mean_motion": 14.2637843,
        "meta_eccentricity": 0.00260914,
        "meta_inclination": 99.0659,
        "meta_ra_of_asc_node": 233.4837,
        "meta_arg_of_pericenter": 150.5793,
        "meta_mean_anomaly": 209.6861,
        "meta_ephemeris_type": 0,
        "meta_classification_type": "U",
        "meta_norad_cat_id": 30706,
        "meta_element_set_no": 999,
        "meta_rev_at_epoch": 97519,
        "meta_bstar": 0.0018183106,
        "meta_mean_motion_dot": 4.342e-05,
        "meta_mean_motion_ddot": 0,
        "tle_line1": "1 30706U 99025ARQ 25339.14228986  .00004342  00000+0  18183-2 0  9998",
        "tle_line2": "2 30706  99.0659 233.4837 0026091 150.5793 209.6861 14.26378430975195"
      },
      "geometry": {
        "type": "Point",
        "coordinates": [
          65.75072756365238,
          50.640739292389235
        ]
      }
    },
    {
      "type": "Feature",
      "properties": {
        "norad_id": 30707,
        "name": "FENGYUN 1C DEB",
        "group": "fengyun-1c-debris",
        "lat": -6.783217202837351,
        "lon": 35.163716183591795,
        "alt_km": 808.689324527083,
        "timestamp": "2025-12-06T03:35:02.149440+00:00",
        "meta_object_name": "FENGYUN 1C DEB",
        "meta_object_id": "1999-025ARR",
        "meta_epoch": "2025-12-04T19:55:25.798944",
        "meta_mean_motion": 14.26602209,
        "meta_eccentricity": 0.00283924,
        "meta_inclination": 99.4136,
        "meta_ra_of_asc_node": 32.6156,
        "meta_arg_of_pericenter": 92.5294,
        "meta_mean_anomaly": 329.7906,
        "meta_ephemeris_type": 0,
        "meta_classification_type": "U",
        "meta_norad_cat_id": 30707,
        "meta_element_set_no": 999,
        "meta_rev_at_epoch": 96690,
        "meta_bstar": 0.003271385,
        "meta_mean_motion_dot": 7.89e-05,
        "meta_mean_motion_ddot": 0,
        "tle_line1": "1 30707U 99025ARR 25338.83015971  .00007890  00000+0  32714-2 0  9999",
        "tle_line2": "2 30707  99.4136  32.6156 0028392  92.5294 329.7906 14.26602209966907"
      },
      "geometry": {
        "type": "Point",
        "coordinates": [
          35.163716183591795,
          -6.783217202837351
        ]
      }
    }
  ]
}